DANE_code,municipality,hotel_name,address,phone_number,mail,owner
15047,AQUITANIA,FINCA SAN PEDRO,KILOMETRO 2 VIA AQUITANIA,7720727,felipeavelasco@yahoo.com,ANDRES FELIPE VELASCO SAENZ
15047,AQUITANIA,HOTEL REFUGIO SANTA INES,VEREDA EL CAJON,3125210033,santaineshotel@gmail.com,CARLOS ERNESTO TORRES AGUIRRE
15047,AQUITANIA,HOTEL REFUGIO POZO AZUL,LAGO DE TOTA VEREDA SUSACA,3134401766,hpozoazul@yahoo.com,MAURICIO NIÑO REYES
15047,AQUITANIA,HOTEL ROCAS LINDAS LAGO DE TOTA,KILOMETRO 26 VIA SOGAMOSO AQUITANIA,7723776,hotelrocaslindastota@yahoo.es,MARIA MARCELA FONSECA PARRADO
15047,AQUITANIA,CHALET DEL ARCO IRIS,VEREDA EL CAJON,2684399,chaletdelarcoiristota@hotmail.com,DIEGO FERNANDO MESA CHAPARRO
15047,AQUITANIA,HOTEL DONDE LUCHO AQUITANIA,CALLE 7 NO 6 32,7794138,restaurantelucho.aquitania@gmail.com,LUIS ANTONIO SUAREZ MOLINA
15051,ARCABUCO,FUNDACION AYUDA INTERNACIONAL DE ALEMANIA Y SUIZA AL CAMPESINO COLOMBIANO,VEREDA LOS NARANJOS FINCA AGUA VIVA,6561608,marthaestupinana@yahoo.es,ANTONIO MARIA BARRIOS DIAZ
15051,ARCABUCO,CENTRO DE VISITANTES SANTUARIO DE FLORA Y FAUNA IGUAQUE,SANTUARIO DE FLORA Y FAUNA IGUAQUE,3125859892,naturariguaque@yahoo.es,CARLOS WILLIAM GOMEZ GARZON
15176,CHIQUINQUIRA,HOTEL LA PRIMAVERA,CARRERA 10 NO 17 80,7262452,dnvgranados@yahoo.es,HERMINIA PARRA CASTELLANOS
15176,CHIQUINQUIRA,HOTEL ALCARRAZA CHIQUINQUIRA,CALLE 17 NO 8 44,7260524,NI,MISAEL GUERRERO MATEUS
15176,CHIQUINQUIRA,HOTEL VILLACENTRO,CARRERA 10 NO 17 35,7262663,hotelvillacentro@hotmail.com.co,BEATRIZ ARACELY NOVA DE VILLAMIL
15176,CHIQUINQUIRA,HOTEL LA VIÑA,CARRERA 9 NO 16 51,7262568,NI,FLOR MARINA CANCELADO DE GONZALEZ
15176,CHIQUINQUIRA,HOTEL BOYACA,CARRERA 9 NO 4A 93,7264405,NI,CASTA HERLINDA RODRIGUEZ DE SANCHEZ
15176,CHIQUINQUIRA,HOTEL MONTECARLO,CALLE 9 NO 8 76,7264366,ninguna,CARMEN CECILIA PARRA DE GARZON
15176,CHIQUINQUIRA,HOSPEDAJE EL CONDOR,CARRERA 9 NO 5 05,7263700,NI,SECUNDINO ARDILA VELOZA
15176,CHIQUINQUIRA,EL GRAN HOTEL,CALLE 16 NO 7A 55,7263700,elgranhotelchiq@reservashoteleras.com,PEDRO ANTONIO BUITRAGO IBAÑEZ
15176,CHIQUINQUIRA,HOTEL EL DORADO,CARRERA 7 NO 18 04,7262490,hoteldoradochiquinquira@latinmail.com,EDGAR PIEDRAHITA BARRERO
15176,CHIQUINQUIRA,HOTEL EL PORTICO,CARRERA 9 NO 16 21,7263810,NI,RUBY SOLANYI ROCHA PAEZ
15176,CHIQUINQUIRA,HOTEL RIO,CARRERA 10 NO 17 93,7262832,NI,CANDIDO FLOREZ MORALES
15176,CHIQUINQUIRA,HOTEL RESTAURANTE IMPERIAL,CARRERA 9 NO 4 69/73,7263442,gmo3d@hotmail.com,FERNANDO IBAGUE PINILLA
15176,CHIQUINQUIRA,HOTEL MOYBA,CARRERA 9 NO 17 53,7262649,ni,VIRGINIA GUERRERO MATEUS
15176,CHIQUINQUIRA,HOTEL Y RESTAURANTE ALFEREZ REAL,CARRERA 9 NO 5 23,7265018,NI,LUIS AUGUSTO MARTINEZ PAEZ
15176,CHIQUINQUIRA,HOTEL REAL MUISCA,CALLE 16 NO 9 22,7264647,,CORNELIO DE JESÚS MESA GARCÍA
15176,CHIQUINQUIRA,HOSPEDAJE AUGUSTO,CALLE 16 NO 7A 13,7264292,NI,MARIA CARLINA LOPEZ BARRAGAN
15176,CHIQUINQUIRA,HOTEL LUZ MAR,CARRERA 9 NO 2 35 SUR,7265220,NI,WILSON JAVIER CASTELLANOS PACHON
15176,CHIQUINQUIRA,HOSPEDAJE SAN MARTIN,CARRERA 9 NO 19 84,3138425505,NI,RUBEN DARIO CORTEZ GUERRERO
15176,CHIQUINQUIRA,HOTEL CALLE REAL CHIQUINQUIRA,CALLE 1A 8 24,7263539,salomoncallerealalatinmail.com,SALOMON CASTELLANO FLORIAN
15176,CHIQUINQUIRA,LA ALDEA DE ZUHE,VEREDA HATO DE SUSA,7264866,zamips@yahoo.com,YULIET ZAMIRA MURCIA PAEZ
15176,CHIQUINQUIRA,HOSPEDAJE ANDALUZER,CALLE 19 NO 13 44,7265335,NI,EDILBERTO RAMIREZ 
15176,CHIQUINQUIRA,HOTEL EL BOSQUE DE LOS PINOS,CARRERA 9 NO 3B 08,7264582,yeigo25@hotmail.com,YEIMY ALEXANDRA GONOZALEZ MELO
15176,CHIQUINQUIRA,HOSPEDAJE CHIQUINQUIREÑO,CARRERA 10 NO 17 90 CENTRO,3138307268,fanhera@hotmail.com,FANNY MARIA HERNANDEZ RAMIREZ
15176,CHIQUINQUIRA,HOTEL ORQUIDEA A.B,CALLE 18 NO 7 32 34,3102257095,brujildita2511@hotmail.com,ROSA TULIA PACHON DE ARDILA
15185,CHITARAQUE,HOTEL ESTELAR,CARRERA 3 NO 1 83,7290508,wijepa@gmail.com,WILSON JESUS PARRA ABAUNZA
15185,CHITARAQUE,COMPLEJO TURISTICO SINCERIN,KILOMETRO 44 VIA BARBOSA BUCARAMANGA,3108065941,lepicas1911@live.com,LUIS EMIGDIO PINZON CASTRO
15185,CHITARAQUE,JUAN JOTA CHITARAQUE,VEREDA POTRERO GRANDE,3132934336,alpa1720@hotmail.com,SAUL AGUILAR VARGAS
15185,CHITARAQUE,LAS BRISAS DEL HUERTAS,VEREDA POTRERO GRANDE,3213733207,milena_1726@hotmail.com,SANDRA MILENA GUARIN RUBIO
15236,CHIVOR,HOTEL LA VALLE,CARRERA 5 NO 6 10,7533019,fernandocalderon64@hotmail.com,VINICIO FERNANDO CALDERON SALCEDO
15189,CIENEGA,PANORAMA PLAZA HOTEL,CALLE 3 NO 6 67,3164726003,panoramaplazahotel@yahoo.es,MANUEL ANGEL GONZALEZ CRUZ
15204,COMBITA,FINCA EL RECREO ECOLOGICO,VEREDA SAN ISIDRO,7403104,elrecreoeco@hotmail.com,DIOGENES LEONEL GARZON GUZMAN
15226,CUITIVA,HOSTERIA BALNEARIO EL BATAN,VEREDA LA VEGA,7790000,mapicas2002@yahoo.com,MARIA DEL ROSARIO CASTRO REBOLLEDO
15226,CUITIVA,HOTEL REFUGIO RANCHO TOTA,KILOMETRO 21 VIA SOGAMOSO AQUITANIA,7708083,hotelranchotota@yahoo.es,NELSY AURORA BARRERA DE BERNAL
15226,CUITIVA,HOTEL EL CAMINO REAL,KILOMETRO 20 VIA SOGAMOSO AQUITANIA,7700684,mauricioefigueroa@yahoo.com,MAURICIO EFRAIN FIGUEROA VELASCO
15226,CUITIVA,TOTA RESORT SPA,VEREDA BALCONES,4083346,info@lagunadetota.com,GLEN EDUARDO VASQUEZ RUIZ
15226,CUITIVA,RECREACION Y EVENTOS EL MIRADOR DEL LAGO,VEREDA LA VEGA Y ARBOLOCOS,3202208331,elmiradordellago@gmail.com,ABDENAGO VELASCO OSUNA
15238,DUITAMA,HOTEL OICATA,CARRERA 16 NO 13 02,7603259,NI,ARMANDO RINCON TORRES
15238,DUITAMA,HOTEL LAS ORQUIDEAS,CARRERA 35 NO 11 81,7603272,,ALBA LUZ AMEZQUITA INFANTE
15238,DUITAMA,HOTEL AZUAY,CARRERA 18 NO 17 53,7603350,NIO,ROSALBA BARRERA REYES
15238,DUITAMA,DINASTIA REAL HOTEL,CALLE 11 NO 14 70,7616060,dinastiarealhotel@hotmail.com,ELBERTO JIMENEZ TAMAYO
15238,DUITAMA,HOTEL INTERNACIONAL PLAZA,CALLE 16 NO 18 69,7603304,NI,GLORIA ESPERANZA TAMAYO AMEZQUITA
15238,DUITAMA,HOTEL CATALINA REAL,CARRERA 16 NO 17 25/27,7606959,hotelcatalinareal@colombia.com,MARIELA DEL CARMEN CUADROS DE CUADROS
15238,DUITAMA,HOTEL DEL PARQUE,CALLE 18 NO 17 59,7602254,NI,MARIA AMPARO PAEZ FERRO
15238,DUITAMA,HOTEL FARAON,CALLE 17 NO 18 10,7604677,NI,WILLINGTON BECERRA GALEANO
15238,DUITAMA,HOTEL TUNJO DORADO,CARRERA 19 NO 13 51,7631992,,BELQUI RAQUEL BRICEÑO AVELLANEDA
15238,DUITAMA,HOTEL PERLA REAL VICTORIA,CARRERA 19 NO 15 41,7603982,NI,OLGA MARIA ALBARACIN DE RINCON
15238,DUITAMA,HOTEL HACIENDA EL CARMEN Y CENTRO DE CONVENCIONES,CALLE 8A NO 35 14,7620813,NI,LUIS ALEJANDRO ALARCON L.
15238,DUITAMA,HOTEL Y RESTAURANTE SANTA ISABEL,CARRERA 18 NO 18 59,7602623,hotelsantaisabel@hotmail.com,CELEDONO SILVA PESCA
15238,DUITAMA,HOTEL CASTILLO YENNY,CARRERA 17 NO 15 39,7602837,NI,YENNY VIVIANA VEGA BECERRA
15238,DUITAMA,HOTEL HISCA,CARRERA 19 NO 16 58,7601188,NI,NEILA CAROLINA SANABRIA GOMEZ
15238,DUITAMA,HOTEL YELIBETH S DE H,CALLE 15 NO 19 76,7600234,NI,NORA NANCY MORENO TORRES
15238,DUITAMA,HOTEL CLASS,CARRERA 19 NO 18 18,7623176,NI,MARTHA ISABEL OROZCO RUIZ
15238,DUITAMA,HOTEL Y RESTAURANTE BAR PARAISO TROPICAL,CARRERA 14 NO 12 67,3114802280,NI,HERIBERTO BECERRA CORREDOR
15238,DUITAMA,CASA DE BANQUETES Y EVENTOS REAL PICO VICTORIA,CALLE 15 NO 17 36,7605859,NI,ALFONSO LOPEZ BARRERA
15238,DUITAMA,HOTEL MAGISTRAL,CARRERA 19 NO 15 27,7605012,hotelmagistral@hotmail.com,LIZETH ZAYURI FAJARDO QUINTERO
15238,DUITAMA,HOTEL GLORIA,CALLE 17 NO 19 17,7611520,NI,GLORIA MERCEDES HUERTAS DE MEDINA
15238,DUITAMA,HOSPEDAJE CORDOBES,CALLE 17 NO 19 34,7604954,hospedajecordobes@yahoo.es,OLGA LUCIA MANCIPE RIVERA
15238,DUITAMA,HOTEL EL MARQUEZ DE SAN FERNANDO,CARRERA 19 NO 12 15,7601754,fedo.sanchez@gmail.com,HECTOR ALEJANDRO SANCHEZ PACHECO
15238,DUITAMA,HOTEL MI REFUGIO,743762554,7601754,fedosanchez@gmail.com,WILLIAM FERNANDO SANCHEZ PACHECO
15238,DUITAMA,HOTEL SUAREL CENTER,CARRERA 17 NO 17 30 ,7612246,hotelsuarelc@gmail.com,ROSENDO VARGAS VERDUGO
15238,DUITAMA,HOSPEDAJE JOHN FREDY,CARRERA 19 NO 18 42,7601736,hospedajejohnfredy@gmail.com,MARIA ENGRACIA MARTINEZ DE TORRES
15238,DUITAMA,HOTELITO BOYACENSE,PUEBLITO BOYACENSE CASA 6-4,7611757,hotelitoboyacense@hotmail.com,HUMBERTO ANTONIO CARRILLO VARGAS
15238,DUITAMA,VILLA SALOME,MANZANA 3 CASA 204 PUEBLITO BOYACENSE,7611135,lf_granados@hotmail.com,LUIS FERNANDO GRANADOS RINCON
15238,DUITAMA,KUR-HOTEL BIO-SPA,KILOMETRO 5 VIA DUITAMA PAIPA,7638009,ipsbiosalud@yahoo.com,FRANCISCO JAVIER GARCIA GARCIA
15238,DUITAMA,SHALOM HOTEL DUITAMA,CARRERA 19 NO 15 32,7630777,shalomhotel@hotmail.com,VICTORIA DUARTE DE PINEDA
15238,DUITAMA,HOTEL CHAYANY,CALLE 18 NO 18 29,7601854,NI,JOSE ALIRIO BARRERA HIGUERA
15238,DUITAMA,SAN LUIS CASA HOTEL SERVICIO TURISTICO Y HOTELERO L G C,CALLE 15 NO 14 16,3102682656,sanluiscasahotel@yahoo.es,GUILLERMO CERON GUEVARA
15238,DUITAMA,HOTEL PUNTO VERDE,CALLE 18 NO 17 60,7613707,florecita_md@yahoo.es,EPIFANIO MERCHAN MORENO
15238,DUITAMA,HOTEL VIRREY PLAZA VEGA,CALLE 17 NO 17 45,7611024,vegawilmer1800@gmail.com,WILMER AUGUSTO VEGA BECERRA
15238,DUITAMA,HOTEL CHANEL,CARRERA 17 NO 18 27,3118682904,hotelchanel@hotmail.com,ROSA ELENA MERCHAN DIAZ
15238,DUITAMA,HOTEL MERCY,CALLE 17 NO 19 57,7604202,NI,MERCEDES MARTINEZ DE VARGAS
15238,DUITAMA,HOTEL NUEVO EDEN DUITAMA,CALLE 17 NO 9 40,7601904,NI,CARLOS ALFREDO MEDINA HUERTAS
15244,EL COCUY,HOTEL CASA MUÑOZ,CARRERA 5 NO 7 28 36,7890328,hotelcasamunoz@hotmail.com,SANDRA JEANNETTE MUÑOZ BLANCO
15244,EL COCUY,LA POSADA DEL MOLINO,CARRERA 3 NO 7 51 BARRIO VENEZUELA,7890377,juancho1635@latinmail.com,PABLO ANTONIO TORRES VELANDIA
15272,FIRAVITOBA,HOTEL Y RESTAURANTE ZUA DE FIRAVITOBA,CARRERA 4 NO 8 92,3112131848,hotelzuadefiravitoba@gmail.com,
15293,GACHANTIVA,HOSPEDAJE CAMPESTRE LA PERIQUERA,CARRERA 6B NO 25A 41,7443068,jorgevillamil77@gmail.com,FRANCISCO DE BORJA VILLAMIL PIZA
15293,GACHANTIVA,FINCA ECOTURISTICA EL MOLINO,GACHANTIVA CENTRO,3143411753,elmolino_gachantiva@hotmail.com,LADY CATHERINE PIZA MONTENEGRO
15322,GUATEQUE,HOTEL TU REFUGIO,CARRERA 7 NO 11 21,7540071,NI,NUMA FERNANDEZ DE GOMEZ
15322,GUATEQUE,RESIDENCIAS EL ORIENTE,CALLE 10 NO 7 75,7540168,lorenliz@hotmail.com,MARIA CECILIA SANCHEZ DE GARCIA
15322,GUATEQUE,HOTEL VILLA HOTEL,CALLE 10 NO 8 11,7541210,NI,SANDRA MILENA MORA RUBIANO
15322,GUATEQUE,GUATOC CACIQUE HOTEL,CARRERA 7 NO 11 30,7540087,3115045512,ANA ISABEL FAJARDO LOZANO
15322,GUATEQUE,HOTEL BACHUE,CALLE 11 NO 7 88,7540152,NI,JULIA INES USECHE DE VARGAS
15322,GUATEQUE,EL GRAN HOTEL CENTRAL,CALLE 11 NO 7 48,7540367,wilsonvc9@hotmail.com,CARLOS SAMUEL CUESTA MEDINA
15322,GUATEQUE,HOTEL BALNEARIO LAS TERRAZAS,KILOMETRO 1 VIA SUTATENZA,7540795,wilsonvc9@hotmail.com,YALYLE OROZCO ESCOBAR
15332,GUICAN,KABAÑAS KANWARA,VEREDA EL TABOR,3112316004,infokanwara@gmail.com,
15332,GUICAN,LA POSADA SIERRA NEVADA,GUICAN VEREDA EL TABOR,8020601,emprendersd@yahoo.es,ANGELA MARCELA SANCHEZ CORREA
15332,GUICAN,CABAÑAS PEÑA BLANCA,VEREDA EL TABOR,8020600,NI,MARIA ELDA CRISTANCHO QUINTERO
15332,GUICAN,POSADA TURISTICAS BRISAS DEL NEVADO,CARRERA 5 NO 4 57,7897028,macrivalnu@yahoo.es,MARIA CRISTINA VALBUENA NUÑEZ
15362,IZA,REGISTRO PRUEBA,calle 5 no 10 34,6353535,paoct5@hotmail.com,EE J U
15362,IZA,HOTEL COMPLEJO TURISTICO COMAMOS TRUCHA,CARRERA 5 NO 6 14,7790002,caroyneil@yahoo.es,NEIL FERNANDO URIBE RUIZ
15362,IZA,HOTEL SANTA ISABEL IZA,CALLE 4 NO 5A 18,3153344580,jmsepulveda11@hotmail.com,JUANA MARITZA SEPULVEDA REYES
15362,IZA,COMPLEJO HOTELERO TERMAL,CARRERA 4 NO 5 38,7790069,mmsanchez81@hotmail.com,MARGRIT MILENA SANCHEZ RODRIGUEZ
15425,MACANAL,SINAI MACANAL,DATIL MACANAL,6192364,NI,RAFAEL MARIA DAZA MONTENEGRO
15455,MIRAFLORES,HOTEL CASALOMA,CARRERA 12 NO 2 01,7330310,hotelcasaloma@hotmail.com,GLADYS ALICIA MONROY GARZON
15455,MIRAFLORES,CASA HOTEL LOS BALCONES,CALLE 4 NO 12 204,7330101,los balconescasahotel@hotmail.com,CLARA PATRICIA GAONA MORA
15455,MIRAFLORES,LA POSADA DE DON JUAN,CARRERA 8 NO 4 56 PEATONAL,7331010,laposadadedonjuanmiraflores@yahoo.com,MARIA TERESA ALFONSO ALFONSO
15455,MIRAFLORES,HOTEL YANUBA,CARRERA 9 NO 2 45,3107574203,hotelyanuba@gmail.com,TITO HERNAN DAZA NOVOA
15466,MONGUI,GRANJA AGROTURISTICA SAN CRISTOBAL,VEREDA CENTRO PORTON BLANCO,7704134,josemiguelbarreramartinez@yahoo.es,JOSE MIGUEL BARRERA MARTINEZ
15466,MONGUI,POSADA TURISTICA MARIA AUXILIADORA,KILOMETRO 1 SALIDA A SOGAMOSO VEREDA EL CENTRO,7782505,josecely55@hotmail.com,JOSE ABRAHAM CELY PLAZAS
15469,MONIQUIRA,HOTEL CAMPESTRE LOS ARRAYANES,KILOMETRO 5 VIA MONIQUIRA BARBOSA,7486272,hotelarrayanes@yahoo.com,GUILLERMO GOMEZ GARCIA
15469,MONIQUIRA,CENTRO VACACIONAL COMFABOY,CALLE 1 NO 8 00 KILOMETRO 2 VIA SANTA SOFIA,7282214,ytiria@comfaboy.com.co,NESTOR RAUL VEGA GOMEZ
15469,MONIQUIRA,HOTEL CIUDAD DULCE,CARRERA 3 NO 16 83,7281097,NI,JHON ALEXANDER CADENA 
15469,MONIQUIRA,HOTEL BALCONES DE MONICA,CALLE 19 NO 5 78,7282611,NI,LUVID HERNANDO CIFUENTES VELASCO
15469,MONIQUIRA,HOTEL CLARA LUZ,CALLE 19 NO 4 66,87282278,NI,AMPARO ABRIL DE RODRIGUEZ
15469,MONIQUIRA,HOTEL BAHIA MONIQUIRA,CALLE 16 NO 5 40,7280977,maolgahu@hotmail.com,ANCISAR PARRA AVILA
15469,MONIQUIRA,FINCA RECREACIONAL VILLA MARIA,VEREDA SAN VICENTE,7482076,veronicagutierrez55@hotmail.com,MARIA CRISTINA AVILA BOHORQUEZ
15469,MONIQUIRA,HOTEL ENGATAMA,CARRERA 3A NO 16 155 PISO 3,7282591,luisrive1120@hotmail.com,LUZ MERY TAMAYO PARRA
15469,MONIQUIRA,LA CABAÑA HOTEL,CARRERA 5 NO 20 23,7281774,NI,MARIA LILIA CASTAÑEDA MORALES
15469,MONIQUIRA,LA POSADA DE BACHUE,CARRERA 5 NO 16 22,7282146,NI,HELIO JOSE CONTRERAS CUERVO
15469,MONIQUIRA,EL CASTILLO HOTEL ECOTURISTICO,1.8 KILOMETRO VIA MONIQUIRA TUNJA,4156008,gerencia.hotelelcastillo@gmail.com,JORGE HUMBERTO PUENTES VILLAMIL
15469,MONIQUIRA,RECREAR GAIA MONIQUIRA,KILOMETRO 5 VIA MONIQUIRA BARBOSA,7481755,recrearsau7@gmail.com,ALFONSO LEON ROJAS
15469,MONIQUIRA,CENTRO RECREACIONAL LAS PALMAS MONIQUIRA,VEREDA NEVAL Y CRUCES ,3112782620,rluzbernarda@yahoo.com,LUZ BERNARDA RODRIGUEZ CUEVAS
15469,MONIQUIRA,PARQUE RECREACIONAL LAGO CLUB,VEREDA SAN VICENTE BAJO,2407331,reservas@lagoclubmoniquira.com,PASCUAL CAMACHO MORA
15469,MONIQUIRA,CENTRO VACACIONAL CANAPRO O.C.,CARRERA 10 NO 22 97,7423094,NI,CESAR SERRANO SANCHEZ
15491,NOBSA,COMPLEJO TURISTICO PUNTA LARGA,KILOMETRO 7 VIA DUITAMA BELENCITO,7605841,hotelpuntalarga@yahoo.com,FRANCISCO AUGUSTO BERRIO ZAFRA
15491,NOBSA,HOTEL SANTA ROSALIA,KILOMETRO 7 VIA DUITAMA BELENCITO,7600702,NI,ROSALBA GARZON DE VIETTO
15491,NOBSA,HOSTERIA SAN LUIS,KILOMETRO 7 AUTOPISTA DUITAMA BELENCITO,7603260,hosteriasanluis@hotelescondestino.com,LUIS EDUARDO ALARCON ACEVEDO
15491,NOBSA,HOTEL NOBSA COLONIAL,CARRERA 10 NO 4 18,7773196,hotelnobsacolonial@hotmail.com,ARGEMIRO PEREZ LOPEZ
15491,NOBSA,HOTEL TURISTICO VILLA DEL SOL,KILOMETRO 5 VIA SOGAMOSO BELENCITO,7724164,hotelturisticolavilladelsol@hotmail.com,JUAN MANUEL HERRERA URIBIO
15494,NUEVO COLON,HOTEL SANTA CLARA NUEVO COLON,CALLE 3 NO 4 75,5482759,hotelsantaclarasas@gmail.com,JOHN HENRY ALBAÑIL GUZMAN
15500,OICATA,HOTEL REFUGIO CASTILLO DEL VIENTO,VEREDA PORAVITA SECTOR LA VIRGEN,3115217296,bibianaesca@hotmail.com,MARTHA BIBIANA ESCALLON QUINTERO
15516,PAIPA,FANINY HOTEL,CALLE 25 NO 5 18 KILOMETRO 1 VIA PISCINAS ,7851331,faninyhotel@hotmail.com,NEMECIO RUIZ TORREZ
15516,PAIPA,HOTELES ESTELAR SA SUCURSAL PAIPA,ORILLAS DEL LAGO SOCHAGOTA,7850944,contraloria@paipahotelycentrodeconvenciones.com,JORGE ALFONSO MILLAN GUEVARA
15516,PAIPA,HOTEL EL LAGO LTDA,CALLE 6 NO 4B 68,7850872 / 3134231260,hotelago@hotmail.com / reservas@ellagohotel.com,OLGA VICTORIA LOZANO RAMIREZ
15516,PAIPA,HOTEL LANCEROS COLSUBSIDIO,KILOMETRO 4 VIA PANTANO DE VARGAS,7850536,NI,CARLOS LEONARDO RUIZ DIONICIO
15516,PAIPA,HOTEL COLONIAL COLSUBSIDIO,KILOMETRO 3 VIA A PANTANO DE VARGAS,7850536,hoteles.paipa@colsubsidio.com,LEONARDO RUIZ
15516,PAIPA,LA CASONA DEL SALITRE PAIPA,VIA TOCA KILOMETRO 1 VEREDA EL SALITRE,7850603,casona@hotelsochagota.com,CARLOS DUARTE VEGA
15516,PAIPA,HOTEL SOCHAGOTA,KILOMETRO 2 VIA PISCINAS MUNICIPALES,7850011,sochagotahotel@hotmail.com,CARLOS DUARTE VEGA
15516,PAIPA,LA POSADA,CALLE 23 NO 20 37,7850073,andresgarcia7@gmail.com,PRECELIA ECHEVERRIA DE GARCIA
15516,PAIPA,HOTEL EL PORTAL DE LA CASONA,CALLE 24 NO 19 21,7850176,hotelelportaldelacasona@gmail.com,LILIANA GÓMEZ PALACIOS
15516,PAIPA,HOTEL CABAÑAS EL PORTON,AVENIDA PISCINAS TERMALES,7850168,elporton_paipa@reymoreno.net.co,CARLOS ALFONSO GALVIS GUTIERREZ
15516,PAIPA,HOTEL CASA BLANCA,KILOMETRO 1 VIA PISCINAS,7850215,marisolg2002@hotmail.com,ROBERTO GONZALEZ CUTA
15516,PAIPA,HOTEL FAMILIAR CHERATON,CALLE 23 NO 18 07,7850359,NI,ADELINA PANQUEVA DE JIMENEZ
15516,PAIPA,DAZA HOTEL,CARRERA 19 NO 25 29,7850071,dazahotel@telesat.com.co,GILBERTO ANTONIO DAZA HIGUERA
15516,PAIPA,HOTEL LIBERTADORES,CALLE 25 NO 5 141 AVENIDA LAS PISCINAS,850618,,ABRAHAM MERCHAN CORREDOR
15516,PAIPA,HOTEL TUVALU,CALLE 21 NO 22 15,7850674,hoteltuvalu@hotmail.com,DIANA CRISTINA ROBERTO PINTO
15516,PAIPA,HOTEL VILLA LUNA CONFORD,CALLE 25 NO 9 07,7850520,NI,EFREN MONROY VARGAS
15516,PAIPA,HOTEL PANORAMA COMFABOY,CARRERA 10 NO 16 81,7850175,ytiria@comfaboy.com.co,RICARDO QUIJANO MARTINEZ
15516,PAIPA,HOTEL CARLOT,CARRERA 20 NO 24 22,7851497,NI,NANCY GONZALEZ SUAREZ
15516,PAIPA,HOTEL ZUHE CENTRO DE NEGOCIOS Y CONVENCIONES,CALLE 25 NO 18 32,7851398,hotelzuhepaipa@hotmail.com,YANNETH MORENO ROMERO
15516,PAIPA,CABAÑAS GUACATA HOTEL,CARRERA 10 NO 25 61,7850514,carlos.eduardo@guacatahotel.com,BEATRIZ SILVA DE FORERO
15516,PAIPA,BUNGALOWS CALANDAIMA,CARRERA 13 NO 25 220 VIA PISCINAS,7850558,piedadls12@hotmail.com,VICENTE FERRER SANTAMARIA ABRIL
15516,PAIPA,CABAÑAS BALCONES DE SAN CAYETANO,VEREDA LA ESPERANZA,2694397,sancayetano-paipa@hotmail.com,ROBERTO CASTRO GRANADOS
15516,PAIPA,HOTEL CASA GRANDE REAL,CALLE 25 NO 8 03,7850191,NI,CAROLINA CORREDOR NIÑO
15516,PAIPA,CABAÑAS BUENA VISTA,CALLE 30 NO 22 62,7850686,buenavistapaipa@yahoo.com,AURELIANA SOMBREDERO DE RUIZ
15516,PAIPA,HOTEL LOS VELEROS TERMINAL,AVENIDA LOS LIBERTADORES NO 21 29,7850587,NI,ALBA RUDY RODRIGUEZ VALDERRAMA
15516,PAIPA,HOTEL KANDELABRO,CARRERA 19 22 24 ,7851755,NI,LIBARDO HUMBERTO SALAMANCA AMEZQUITA
15516,PAIPA,CANADA HOTEL,CARRERA 20 NO 23 61,7850154,omarcoronadobc@hotmail.com,OMAR ENRIQUE CORONADO BECERRA
15516,PAIPA,CLUB CAMPESTRE LA GRANJA,SECTOR EL COLORADO VEREDA EL TEJAR,7850023,andresramirez.b@gmail.com,ANDRÉS FELIPE RAMÍREZ BARRETO
15516,PAIPA,HOTEL PORTOFINO PAIPA,CALLE 25 NO 24 30,7850790,portofinopaipa@hotmail.com,ANA CECILIA CAMARGO MONROY
15516,PAIPA,CASA HOTEL DESCANSO REAL,VEREDA LA ESPERANZA VIA CANOS,3153121688,olgaluciadiazrodriguez@yahoo.es,OLGA LUCIA DIAZ RODRIGUEZ
15516,PAIPA,INTERNACIONAL LAURENS CLUB S.A. CAMPESTRE,VILLA LAURA VEREDA CAÑOS,3168874848 / 3103374280,luisantonioruiz2009@hotmail.com,LUIS ANTONIO RUIZ MALAVER
15516,PAIPA,CASA HOTEL VILLA VIANNEY,CALLE 26A NO 26 60 BARRIO VILLA VIANNEY,7850088,villavianney@hotmail.com,JULIO ALBERTO GARAVITO PALACIOS
15516,PAIPA,SOCHAGOTA IPS,CALLE 25 NO 5 100,7852301,sochagotaips@gmail.com,MANUEL GUILLERMO RODRIGUEZ NIÑO
15516,PAIPA,HOSPEDAJE FAMILIAR EL MIRADOR,CALLE 24C NO 8 35 BARRIO VILLA PANORAMA,7853613,NI,AMPARO GUATIBONZA RODRIGUEZ
15516,PAIPA,HOSTERIA REAL MARQUES,CARRERA 19 NO 20 08,7851867,hosteriareal@hotmail.es,LUZ DILIA LUGO MARQUEZ
15516,PAIPA,VIVIENDA TURISTICA PORTAL DE FLORES,CALLE 25 NO 5 05,3112785829,NI,SHANDIRA WRIGHT RODRIGUEZ
15531,PAUNA,LA POSADA DE CHAVA,CARRERA 6 NO 5 13 FRENTE AL PARQUE MUNICIPAL,67991391,malijj@hotmail.com,
15542,PESCA,EL PORTAL DE LA LOMA,VEREDA CHINCUA FINCA EL LUNAR,3203028544,juliaquinmen@yahoo.es,ROSA JULIA QUINTERO MENDOZA
15572,PUERTO BOYACA,HOTEL NODILAN,CALLE 12 NO 3 29,7384055,NI,LUZ MARIA VELASQUEZ DE PEREZ
15572,PUERTO BOYACA,RESIDENCIAS MONTERREY,CARRERA 2 NO 11A 14,0,elmer7224@hotmail.com,MARIA JADINE TOVAR ARCILA 
15572,PUERTO BOYACA,HOTEL KARIARY,CARRERA 4 NO 11 70,2755530,grupozuluaga@hotmail.com,JUAN FERNANDO GIRALDO ZULUAGA
15572,PUERTO BOYACA,HOTEL PALAGUA,AVENIDA SANTANDER NO 30 48,7384635,NI,NANCY YAZMIN TRIANA RINCON
15572,PUERTO BOYACA,HOTEL PANAMERICANOS,CARRERA 2 NO 11 31,7383560,fresogoz@hotmail.com,TERESA GIRALDO DE MOLINA
15572,PUERTO BOYACA,GRAN HOTEL PORTEÑO,CALLE 011 NO 003 022,7384376,granhotel@hotmail.es,MARGOTH CARDONA HENAO
15572,PUERTO BOYACA,HB HOTEL BOYACA,CARRERA 003 NO 011 017,7383261,NI,MIGUEL ANGEL JARAMILLO CASTRILLON
15572,PUERTO BOYACA,"RANCHO SOCIAL, DEPORTIVO Y RECREATIVO SIXTO RAFAEL",CALLE 031 BARRIO GUAYACANES,7380241,sixtorafael@gmail.com,JOSE DEL CARMEN MESA GOMEZ
15572,PUERTO BOYACA,HOTEL CENTER PLAZA,CARRERA 3 NO 13 27,7383022,luzcor_@hotmail.com,CAMPO ELIAS ROMERO GUTIERREZ
15572,PUERTO BOYACA,HOTEL ADMIRADOR,CARRERA 003A NO 013 050,7381558,hoteladmirador@hotmail.com,SILVIA LUCIA FRANCO 
15572,PUERTO BOYACA,HOTEL LA 5TA,CARRERA 5 NO 11 33,7385412,NI,MARIA AUXILIADORA OROZCO ORTIZ
15572,PUERTO BOYACA,HOTEL ALTO BONITO,KILOMETRO 25 VIA AUTOPISTA MEDELLIN BOGOTA,3146201437,maribelaltobonito@hotmail.com,MARIBEL DEL SOCORRO TORRES DE OQUENDO
15572,PUERTO BOYACA,HOTEL CIRO,CARRERA 3A NO 7 103,3133942506,slili029@hotmail.com,RAMON LUIS CIRO PARRA
15572,PUERTO BOYACA,HOTEL J & M,CARRERA 5 NO 6B 80,3116309143,franciscooviedo123@hotmail.com,FRANCISCO JAVIER OVIEDO VALENCIA
15572,PUERTO BOYACA,HOTEL CAMPESTRE EL TEKAL,KILOMETRO 4 TROCAL DE LA PAZ,7383305,hotelcampestreeltekal@gmail.com,ANA YANETH RESTREPO HERNANDEZ
15572,PUERTO BOYACA,HOTEL Y RESTAURANTE EL CASTILLO,KILOMETRO 106 VIA HONDA - COSTA ATLANTICA,188044075,edselcastillo@hotmail.com,SANTIAGO ARDILA GONZALEZ
15572,PUERTO BOYACA,HOTEL LA POSADA KM-25,PUERTO GUTIERREZ,3122587479,yamily@hotmail.com,YAMILY OCAMPO MAZO
15572,PUERTO BOYACA,HOTEL MONTECARLO PLAZA,CARRERA 2 NO 12 24,7384290,hotel-montecarlo@hotmail.com,YEHISON ALBERTO GAVIRIA SARMIENTO
15572,PUERTO BOYACA,HOTEL ARCE,CALLE 19 NO 5 02,7380882,NI,NOLBERTO ARCE CARDONA
15572,PUERTO BOYACA,HOTEL CAMINO REAL PUERTO BOYACA,CARRERA 3A NO 14 82,3212714195,hotelcaminoreal2011@hotmail.com,ARMANDO CORTES FRANCO
15572,PUERTO BOYACA,HOTEL ROYAL TOSCANA,CARRERA 5 NO 23 65,7383885,jesid1073@hotmail.com,JEIMER YESID MENDIETA VILLAMIL
15599,RAMIRIQUI,HOTEL TATU S,CALLE 8 NO 6 78,3118182392,NI,LUZ MARIELA GUERRA GUERRERO
15599,RAMIRIQUI,HOTEL LA AVENIDA DEL PORTAL,CARRERA 6 NO 10 52,3133013419,NI,MARIA VISITACION GUERRERO DE GUERRA
15600,RAQUIRA,HOTEL CAMPESTRE SAN FERMIN,RAQUIRA 1 KILOMETRO,2745085,hsanfermin@hotmail.com,MARTHA CECILIA ACERO DE CASAS
15600,RAQUIRA,POSADA SAN AGUSTIN,VEREDA DESIERTO DE LA CANDELARIA,4370581,ecocande@agustinosrecoletos.com.co,NORBERTO DE JESUS ESCOBAR GUZMAN
15600,RAQUIRA,HOSPEDERIA NEMQUETEBA,CARRERA 3 NO 3 04,7357016,mariaangelicagaona@hotmail.com,MARIA ANGELICA GAONA DE RONCANCIO
15600,RAQUIRA,POSADA CAMINO DEL MONASTERIO,VEREDA LA CANDELARIA,3115654434,posadacaminodelmonasterio@hotmail.com,UBALDINA CASAS CASTILLO
15600,RAQUIRA,HOTEL SUAYA,CARRERA 3 NO 5 04,7357029,NI,MARITZA VARGAS PINILLA
15638,SACHICA,HOSPEDAJE MI CASITA,AVENIDA PRINCIPAL TUNJA CHIQUINQUIRA,7342181,micasitasachica@hotmail.com,FLOR ANGELA REYES CORREDOR
15638,SACHICA,HOSPEDERIA SAN ROQUE ST,CARRERA 3 NO 4 39,7342280,hospederia_sanroque@hotmail.com,EDWIN FERNANDO CASAS ALIPIO
15638,SACHICA,HOTEL CALLE PRINCIPAL,CALLE 3 NO 1A 66,3115322719,hotelcalleprincipalsachica@hotmail.com,MIGUEL ANGEL MOLINA SANDOVAL 
15638,SACHICA,HOTEL AQUILES,CALLE 13 NO 1 28,3144789814,hercla2002@gmail.com,OLGA NELLY MEDINA DURAN
15638,SACHICA,HOTEL CABANAS SANTA CECILIA,VEREDA EL PLAYON SECTOR HACIENDA SANTA CECILIA,7342212,reservas@hotelsantaceciliasachica.com,YOLIMA ALDANA PEÑA
15638,SACHICA,HOTEL CASA DE ADOBE,VEREDA RITOQUE KILOMETRO 3.5 VIA VILLA DE LEYVA,3102871904,casadeadobe@yahoo.com,JUAN JOSE MARTINEZ NEIRA
15646,SAMACA,POSADA LAS MARGARITAS,VEREDA RUCHICAL,5473494,posadamarga@hotmail.com,MANUEL ALFONSO GONZALEZ PARRA
15646,SAMACA,RESTAURANTE Y HOSPEDAJE LOS ALMENDROS,CALLE 6 NO 6 51,7372746,NI,DORA ELISA PINTO DIAZ
15664,SAN JOSE DE PARE,CASONA LAS JUANAS CAMPO,VEREDA SAN ISIDRO BAJO,7297043,angiebe42@hotmail.com,ANGELA MARIA BEDOYA CARONA
15673,SAN MATEO,HOTEL CAPILLA REAL SAN MATEO,CALLE 4 NO 3 68,7894005,mapaniopc@yahoo.es,MARIA DELIA LIZARAZO DE GONZALEZ
15673,SAN MATEO,HOTEL PRIMAVERA SAN MATEO,CARRERA 3 NO 5 62,7894003,hotelprimavera.sm@gmail.com,SANDRA MILENA PEREZ GOMEZ
15693,SANTA ROSA DE VITERBO,HOTEL EL AEROLITO,CARRERA 5 NO 8 49,7861020,,PEDRO JULIO FUENTES
15686,SANTANA,HOTEL ESTACION SANTANA,KILOMETRO 1 VIA SANTANA BARBOSA,7289581,armandomolo@hotmail.com,JOSE ARMANDO MORA LOPEZ
15740,SIACHOQUE,CASA MORALES SANTA FE,CARRERA 6 NO 10 61,8534252,casamoralessantafe@hotmail.es,FRAY AUGUSTO MORALES QUINCENO
15753,SOATA,PISCICLUB,CALLE 6B NO 2 45,7881221,CONTACTENOS@PISCICLUB.COM,JUAN NEPOMUCENO LOPEZ GOMEZ
15759,SOGAMOSO,HOTEL SOGAMOSO REAL,CARRERA 10 NO 13 11,7701378,NI,JOSE RAMON MORCOTE
15759,SOGAMOSO,HOTEL TOBACA,CALLE 13 NO 10 70,7705377,NI,NORBERTO ARTURO MARINO MORALES
15759,SOGAMOSO,HOTEL LITAVIRA SERVICIOS HOTELEROS XUGAMUXI,CALLE 12 NO 10 30,7702585,H.LITAVIRA@YAHOO.COM,PEDRO ELIAS BALLESTEROS PEÑA
15759,SOGAMOSO,HOTEL SOL INTERNACIONAL,CARRERA 13 NO 13 66,700507,NI,SALOMON CHAPARRO PEREZ
15759,SOGAMOSO,HOTEL YANUBA DE LA 11,CALLE 11 NO 11 54,702997,www.28bink@starmedia.com,JENNY CAROLINA DIAZ BENITEZ
15759,SOGAMOSO,HOTEL ROYAL CONFORT,CARRERA 11 NO 9 48,7700976,NI,LEONILDE MONDRAGON 
15759,SOGAMOSO,HOTEL LA ERMITA,CALLE 10 NO 11 51,7704110,nestorballesterosp@gmail.com,OLGA LUISA PUERTO DE BALLESTEROS
15759,SOGAMOSO,NUEVO HOTEL BOCHICA,CALLE 11 NO 14 33,7707381,liaguirrevega@yahoo.com,LUIS IVAN AGUIRRE VEGA
15759,SOGAMOSO,HOTEL VALPARAISO,CARRERA 18 NO 11A 10,7716935,NI,CARMEN ROJAS DE MONTAÑA
15759,SOGAMOSO,RESIDENCIAS HONEY,CALLE 11A NO 17 40,0,yolm7n@conexcol.com,YOLMAN ALEXIS VASQUEZ CUEVAS
15759,SOGAMOSO,RESIDENCIAS 11A FAMILIAR,CALLE 11A NO 17 24,7717614,NI,TEODOLINDA ORTEGA RODRIGUEZ
15759,SOGAMOSO,HOTEL FLORIDA,CALLE 11 NO 13 26,7718791,NI,GILMA CABRERA DE BARRERA
15759,SOGAMOSO,HOTEL ANDALUZ,CALLE 11 NO 18 63,7701194,NI,ALFONSO NIÑO NIÑO
15759,SOGAMOSO,HOTEL VALLE DEL SOL,CALLE 11 NO 9 63,7702796,NI,JOSE LEONIDAS HERNANDEZ GUEVARA
15759,SOGAMOSO,HOTEL GRAN SHALOM,CALLE 11 A NO 16 60,7704697,NI,JACKELINE SALGUERO 
15759,SOGAMOSO,PLAZA REAL DE LA 20 HOTEL,CARRERA 20 NO 11 B 33,7707134,plazarealmar@hotmail.com,MARIA OTOCILIA HERRERA SUAREZ
15759,SOGAMOSO,NUEVO HOTEL CORDOBA,CARRERA 12 NO 13 48,7715611,harwisan@hotmail.com,HARRY WILLIAM SANCHEZ TRIVIÑO
15759,SOGAMOSO,HOTEL HOSPEDAJE LA POSADA DEL REY,CARRERA 18 NO 11 83,700158,NI,LUZ MILA MENDIVELSO BENITEZ
15759,SOGAMOSO,HOTEL CORDILLERA DE SOGAMOSO,CALLE 13 NO 9 90,7702435,NI,ALVARO BALLESTEROS CAMARGO
15759,SOGAMOSO,HOTEL Y RESTAURANTE LOS ESTEROS,CARRERA 18 NO 11 35/39,7706342,los_esteros_sogamoso@yahoo.es,CARMEN FRANCO GALVIS
15759,SOGAMOSO,HOTEL LA POSADA DEL REY,CARRERA 18 NO 11 83,7700158,NI,JORGE ALIRIO VARGAS VERGARA
15759,SOGAMOSO,LAURA S. GUAUQUE MONTAÑEZ - HOTEL BACHUE,CARRERA 10 NO 13 68,7702512,laura2808@hotmail.com,GUAUQUE MONTAÑEZ LAURA STELLA
15759,SOGAMOSO,HOTEL MANHATTAN,CARRERA 18 NO 10 69,7702851,olues@hotmail.com,MARGARITA BAYONA DE VARGAS
15759,SOGAMOSO,HOTEL LOS ANGELES DE LA 11,CALLE 11 NO 17 21,7702851,olues@hotmail.com,MARGARITA BAYONA DE VARGAS
15759,SOGAMOSO,HOTEL VILLA MONTANA,CARRERA 18 NO 10 61,7723048,NO,JOSE ANANIAS VARGAS VERGARA
15759,SOGAMOSO,GRAN HOTEL SOGAMOSO,CARRERA 18 NO 11 15,7703495,granhotelterminal@yahoo.com,CESAR ORLANDO TOBO BARON
15759,SOGAMOSO,HOTEL EL CRISTAL DE LA 13,CALLE 13 NO 14 26,7706746,hotelcristal13@hotmail.com,LUZ MARINA BALLESTEROS DE SANDOVAL
15759,SOGAMOSO,HOSTAL LA CAZIHITA,CARRERA 8 NO 9 66,3144116104,informacion@lacazihita.com,MIGUEL ALONSO ARAQUE RINCON
15759,SOGAMOSO,HOTEL SOL DE IRAKA,CALLE 11 NO 13 23,7718028,hotelsoldeiraka@hotmail.com,EDINSON YAMID BARRERA CABRERA
15759,SOGAMOSO,HOTEL ORION,CALLE 13 NO 13 12,7728457,hotelorionsogamoso@hotmail.com,ANDREA CONSTANZA FRANCO CAMARGO
15759,SOGAMOSO,CACIQUE PLAZA,CALLE 14 NO 18 76,7727886,nelconcar@hotmail.com,GLADIS DEL SOCORRO JARAMILLO MUÑOZ
15764,SORACA,HOTEL SORACA MANTO REAL,VEREDA OTRO LADO SECTOR LA Y,7445175,NI,JAIBERT QUIROGA MENESES
15764,SORACA,HOTEL BUENOS AIRES SORACA,VEREDA OTROLADO SECTOR LA Y,7438912,albaigg@hotmail.com,BELARMINO FIDEL GUAYACAN GUAYACAN
15763,SOTAQUIRA,CORCELES DE LA LIBERTAD,CARRERA 8 NO 6 51,7873118,corcelesdelalibertad@yahoo.es,LOLA MARCELA ARISTIZABAL TENORIO
15776,SUTAMARCHAN,POMPASOLA,SUTAMARCHAN VEREDA ROA,2553856,ponpasolatours@yahoo.com,ROSA AMANDA VACA SANCHEZ
15776,SUTAMARCHAN,HOTEL CABAÑAS LOS APOSENTOS DE DON PEDRO DE MERCHAN,CALLE 1 NO 1 87,7251447,hotelcabanassutamarchan@hotmail.com,HEYNNER HUMBERTO SUAREZ SUAREZ
15798,TENZA,HOTEL DE TENZA LTDA,CARRERA 5 NO 5 36 ,7527019,hoteldetenza@hotmail.com,DIANA MILENA RODRIGUEZ NIÑO
15798,TENZA,HOSTAL SANTA ANA,CALLE 5 NO 9 61,7527421,eidan400@hotmail.com,HILDA ELIZABETH MEDINA DE GRANADOS
15804,TIBANA,HOTEL HACIENDA BAZA,VEREDA LAVADEROS,338033,haciendabaza@hotmail.com,LUCIA OSPINA DE SCHRADER
15806,TIBASOSA,HACIENDA HOTEL SUESCUN,KILOMETRO 4 VIA SOGAMOSO TIBASOSA,7706828,hotelhaciendasuescun@yahoo.com,FERNANDO REYES ISAZA
15806,TIBASOSA,FINCA LA MARA,FINCA LA MARA SITIO LA Y,7601921,claudiape@cable.net.co,MARIA ESPERANZA HERRERA ESPITIA
15808,TINJACA,RAQUIRA SILVESTRE,FINCA EL CANGREJO VEREDA PEÑAS BAJO,8649208,clanzetta@yahoo.com,HERNANDO ISAACS ARELLANO
15808,TINJACA,CAFETERIA Y BILLARES NUEVO MILENIO,CALLE 4 NO 3 07,7355526,alexdavid900@hotmail.com,JUAN CARLOS ALVARADO TORRES
15814,TOCA,CASA YERBABUENA,KILOMETRO 21 TUNJA VIA TOCA,3142433069,info@casayerbabuena.com,ENRIQUE CUBILLOS ALBA
15822,TOTA,TOTURISMO,CALLE 3 NO 2 66,3142380675,pardoluisangel@hotmail.com,LUIS ANGEL PARDO ORTEGON
15001,TUNJA,HOTEL EL PASO,CARRERA 14 NO 6 54 SUR,7426300,NI,ELKIN MORENO CASTELBLANCO
15001,TUNJA,HOTEL DUX,CALLE 19 NO 10 78 ,7425736,claudiagagomez@yahoo.es,CLAUDIA INES GALINDO GOMEZ
15001,TUNJA,HOTEL OCETA,CALLE 19 NO 7 64,7422886,miguelsiabato@hotmail.com,MIGUEL ANTONIO SIABATO BOLIVAR
15001,TUNJA,HOTEL DORADO PLAZA,CARRERA 14 NO 6 30 SUR,7438693,NI,INES MORENO DE FONSECA
15001,TUNJA,TUNJA REAL HOTEL,CARRERA 14 NO 6A 22 SUR,7436146,astrid_ramos@latinmail.com,MARIA RAQUEL GONZALEZ DE MORENO
15001,TUNJA,HOTEL SAN IGNACIO PLAZA,CALLE 18 NO 10 51,7437583,hector_ibl@hotmail.com,HECTOR BARRETO PARRA
15001,TUNJA,HOTEL SAN FRANCISCO,CARRERA 9 NO 18 90 PISO3,7426645,NI,CARLOS ALBERTO SARMIENTO LOPEZ
15001,TUNJA,HOTEL ROYAL,CARRERA 10 NO 23 35,7423849,jamr@engineer.com,ADRIANA CAROLINA MORALES RIVROS
15001,TUNJA,HOTEL HUNZA,CALLE 21A NO 10 66,7424111,hotelhunzaventas@hotmail.com,VIDAL VANEGAS
15001,TUNJA,HOTEL EL CID PLAZA,CARRERA 10 NO 20 78,7444179,alfonso_736@hotmail.com,ALFONSO PEREZ CHAPARRO
15001,TUNJA,HOTEL CONQUISTADOR DE AMERICA,CALLE 20 NO 8 92,98742353,hotelconquistadordeamerica@hotmail.com,SANDRA MILENA HUERTAS YANQUEN
15001,TUNJA,HOSPEDAJE ARCO IRIS,TRANSVERSAL 3 NO 60A 103,7403305,sequime@latinmail.com,SEGUNO QUIROGA MENESES
15001,TUNJA,HOTEL IMPERIAL TUNJA,CALLE 19 NO 7 43,7431315,himperial@yahoo.es,JAIME A GONZALEZ BECERRA
15001,TUNJA,HOTEL SUITE IMPERIAL,CALLE 19 NO 7 96,7423056,himperialtunja@yahoo.es,OLGA ESPERANZA FIGUEROA SUAREZ
15001,TUNJA,HOTEL RESIDENCIAS BONSAI,CARRERA 9 NO 17 89,7422535,almaridi@hotmail.com,MARIA EUDOSIA DIAZ PINZON
15001,TUNJA,CONVENCIONES Y SERVICIOS ESPECIALES SIMON BOLIVAR,CALLE 18 NO 11 22,7401116,convencionessimonbolivar@hotmail.com,YOLANDA GARCIA CELY
15001,TUNJA,CLUB PRIVADO EL MIRADOR DE ZEUS,KILOMETRO 2 VIA SORACA,7449647,mirador_zeus@yahoo.com,MARIA ESPERANZA PRIETO MARTINEZ
15001,TUNJA,HOTEL GIRASOL TUNJA,CALLE 17 NO 6A 28,7424552,h_girasol.tunja@hotmail.com,LUIS ALEJANDRO MORENO HUERFANO
15001,TUNJA,HOTEL LA ANTIGUA,CALLE 28 NO 10 10,0,NI,CARMEN SMITH MANTILLA GAMBOA
15001,TUNJA,HOTEL POZO DE DONATO,CARRERA 7 NO 42 13,0,pozo-donato64hotmail.com,MARIA LUZ DEL CAMPO RUIZ
15001,TUNJA,HOTEL EL RODEO,CALLE 54 NO 6 20,7427963,meryluzpa@hotmail.com,LUZ MERY PARRA CARDENAS
15001,TUNJA,HOTEL AMERICAN CAFE INTERNET,CARRERA 11 NO 18 70 ,7422471,fpatriotas@yahoo.com.co,ERICA PAOLA CASTAÑEDA MOLINA
15001,TUNJA,DANARAMA HOTEL,CARRERA 13 NO 7 57 SUR,7441154,NI,ANA HERLINDA CHAPARRO LEON
15001,TUNJA,HOTEL Y RESTAURANTE EL CONSUELO,CARRERA 7 15 63,7400160,NI,JAIME PALACIO FONSECA
15001,TUNJA,CASA REAL HOTEL,CALLE 19 NO 7 65,7431764,hotelcasareal@yahoo.es,ALVARO AUGUSTO RAMIREZ ALVAREZ
15001,TUNJA,HOTEL 24 HORAS,CARRERA 8 NO 17 89,7432295,NI,ANGELA MARIA BAHAMÒN LÒPEZ
15001,TUNJA,CASA HOTEL CALLE REAL TUNJA,CALLE 19 NO 10 64,7423556,diegofidel9@hotmail.com,MARIA BEATRIZ CASTELBLANCO DE CASTRO
15001,TUNJA,POSADA DE SAN AGUSTIN,CALLE 23 NO 8 63,7431086,posadadesanagustin@hotmail.com,MARIA GILMA RIVERA MORENO
15001,TUNJA,ALICANTE HOTEL,ALICANTE HOTEL CARRERA 8 NO 19 15,3132167221,NI,JULIETH BIBIANA RAMIREZ MOLANO
15001,TUNJA,HOSPEDAJE Y CAFETERIA BELLAVISTA,CARRERA 7 NO 15 27,7438344,NI,LUZ DINORA CASADO TORRES
15001,TUNJA,HOTEL PLAZA MUISCA,CARRERA 10 NO 24 96,7434552,hotelplazamuisca64@gmail.com,JOSE GUILLERMO PALACIOS OSTOS
15001,TUNJA,CENTRO DE INVESTIGACION RECREACION Y DEPORTES HALACA,VEREDA RUNTA,3006134530,ingnelme@hotmail.com,NELSON JOSE MEDINA BRANDO
15001,TUNJA,HOTEL LAS NIEVES NO 2,CALLE 24 NO 9 97,7437485,fevjpaisa@hotmail.com,JANETH RODRIGUEZ TOVAR
15001,TUNJA,HOTEL CACIQUE MUISCA,AVENIDA NORTE NO 64B 134 MUISCAS,7451539,juancamilo2125@hotmail.com,JUAN GABRIEL BARAJAS BAUTISTA
15001,TUNJA,HOTEL CASA MORENO,CARRERA 14 NO 6 62 SUR,7455129,hotelcasamoreno@hotmail.com,JUAN PABLO MORENO GONZALEZ
15001,TUNJA,HOTEL SANTANDER REALES,CARRERA 7 NO 18 83,7400782,adelfasariza@hotmail.com,
15001,TUNJA,HOTEL IN TRANSPORTADOR,CARRERA 7 NO 16 21,3105870268,lejopapi@hotmail.com,MARIA EUGENIA PINEDA TORRES
15001,TUNJA,HOTEL POSADA REAL TUNJA,CARRERA 7 NO 16 17 BARRIO SAN IGNACIO,3105870268,lejopapi@hotmail.com,JAIME PALACIOS FONSECA
15001,TUNJA,HOTEL DINASTIA REAL LA SEPTIMA,CARRERA 7 NO 17 23,7423530,NI,WALDINA VARGAS BARON
15001,TUNJA,HOTEL TIENDA EL BALCON DEL VIRREY,CARRERA 7 NO 17 26/30,7400939,NI,MARIA DIONILDA AYALA MARTINEZ
15001,TUNJA,RESIDENCIA SUIZA,CARRERA 7 NO 17 22,7422960,NI,MELITON BERMUDEZ CELIS
15001,TUNJA,HOTEL REAL VERSALLES,AVENIDA ORIENTAL NO 16 62 PISO 2,3203467179,NI,GLORIA MARIA DEDERLE SEPULVEDA 
15001,TUNJA,HOTEL EL DORADO LOS HONGOS,CARRERA 11 NO 2B 52,7403760,NI,CARMENZA FONSECA MORENO
15001,TUNJA,HOTEL POSADA DE SAN LAUREANO,CARRERA 8 NO 11 53,7435715,liquia@hotmail.com,JAIRO MAURICIO PALACIOS FONSECA
15001,TUNJA,HOTEL COLONIAL SANTA ELENA,CARRERA 10 NO 23 12,3142782737,hotelcolonialsantaelena@gmail.com,IVAN DARIO PARRA CARDENAS
15001,TUNJA,HOTEL PRINCIPE TUNJA,CARRERA 7 NO 16 47,7403580,ca.quiroga@hotmail.com,SEGUNDO JERONIMO QUIROGA PINEDA
15001,TUNJA,RESTAURANTE EL CHAPULIN COLORADO,CARRERA 14 NO 3 08 SUR,3112424371,nicky_0017@hotmail.com,JOSE ISAAC IGNACIO BAUTISTA GONZALES
15001,TUNJA,HOTEL EL OASIS FAMILIAR,CALLE 17 NO 6 14,7435887,amile849@hotmail.com,ANA MILENA MONROY RENDON
15001,TUNJA,HOTEL POSADA SANTIAGO DE TUNJA,CALLE 16 NO 7 83,7403296,ana.pineda@emdisalud.com.co,ANA YANIRA PINEDA TORRES
15001,TUNJA,HOTEL ZAFIRO PLAZA,CARRERA 10 NO 26 94,3132830683,NI,MARIA DE LOS ANGELES IRENE PARRA LASSO
15407,VILLA DE LEYVA,HOTEL EL EDEN,CARRERA 10 NO 10 40,7320357,hoteden@hotmail.com,JEANETH QUIJANO GARZON
15407,VILLA DE LEYVA,HOSPEDERIA EL MARQUEZ DE SAN JORGE,CALLE 14 NO 9 20,7320480,marquesdesanjorge@hotmail.com,MYRIAM BUITRAGO CASTELLANOS
15407,VILLA DE LEYVA,HOSTAL LOS ACEITUNOS,TRANSVERSAL 10 NO 9 41,7320282,macribatri@hotmail.com,AIDA ESQUIVEL GONZALEZ
15407,VILLA DE LEYVA,HOSTAL CAMPESTRE LA CASONA,VEREDA RITOQUE,7321453,eduardosaenz@hotmail.com,EDUARDO SAENZ LIZARAZO
15407,VILLA DE LEYVA,POSADA LOS ANGELES,CARRERA 10 NO 13 94,7320562,0,JOSEFINA CORDOBA DE BOHORQUEZ
15407,VILLA DE LEYVA,HOTEL ABAHUNZA,CALLE 9 NO 12 31,7320291,,GLORIA FORERO SANCHEZ
15407,VILLA DE LEYVA,HOSTERIA MOLINOS LA MESOPOTAMIA,CARRERA 8 NO 15A 265,7320235,hosteriamesopotamia@hotmail.com,JAIME LANDINEZ CASTELBLANCO
15407,VILLA DE LEYVA,HOTEL HOSPEDERIA SAN CARLOS,CARRERA 9 NO 5 46,7320294,otafor@yahoo.com,ROSALBA FORERO DE OTALORA
15407,VILLA DE LEYVA,HOSPEDERIA EL DURUELO,CARRERA 3 NO 12 88,7320222,contabilidad@duruelo.com.co,ANGELICA DEL PILAR AYALA MURILLAS
15407,VILLA DE LEYVA,HOSPEDERIA ANDRES VENERO DE LEIVA,AVENIDA CIRCUNVALAR CALLE 13 ESQUINA,7320805,soteloingenieria@hotmail.com,ELIZABETH HERNANDEZ DE SOTELO
15407,VILLA DE LEYVA,HOTEL SOL DE LA VILLA,CARRERA 8 NO 12 28,7320224,NI,EUSEBIA MUNEVAR DE AGUAZACO
15407,VILLA DE LEYVA,HOSPEDERIA EL OCOBO,CARRERA 9 NO 5 62,7320482,makanes84@hotmail.com,PRISCILA BAQUERO DE RODRIGUEZ
15407,VILLA DE LEYVA,HOTEL GETSEMANI,AVENIDA PERIMETRAL NO 10 35,7320326,hotelgetsemani@hotmail.com,ROCIO DEL PILAR RODRIGUEZ FORERO
15407,VILLA DE LEYVA,HOTEL MESON PLAZA MAYOR,CARRERA 10 NO 12 31,7320425,hotelplazamayor@hotmail.com,JUAN MARIA TORO PEREZ
15407,VILLA DE LEYVA,HOSTERIA EL ZAGUAN DE LOS HEROES,CARRERA 9 NO 11 55,7320476,,GERMAN ROJAS GONZALEZ
15407,VILLA DE LEYVA,HOSPEDERIA EL MESON DE LOS VIRREYES,CARRERA 9 NO 14 51,7320252,gerencia@hotelmesondelosvirreyes.com,GLADYS CARDENAS TOVAR
15407,VILLA DE LEYVA,HOTEL MARQUEZ DE SAN LUIS,CARRERA 13 NO 8 58 VIA PERIMETRAL,7320277,LUMARHER@HOTMAIL.COM,LUIS MAMERTO MUNAR HERNADEZ
15407,VILLA DE LEYVA,HOSPEDERIA IGUAQUE CAMPESTRE,KILOMETRO 1 VIA ARCABUCO,7320889,marisolg2002@hotmail.com,MARISOL GONZALEZ TORRES
15407,VILLA DE LEYVA,HOSPEDERIA BETH SARIM,CALLE 5 NO 9 137,7320808,ninguna,VICTOR LEONIDAS RODRIGUEZ VILLAMIL
15407,VILLA DE LEYVA,HOSPEDAJE EL MIRADOR,TRANSVERSAL 8 NO 6 94,7320941,NI,PRESCELIA PRIAS VANEGAS
15407,VILLA DE LEYVA,POSADA LA VILLA DE ALCALA,CARRERA 9 NO 5 104,7320671,NI,LUIS EVELIO FORERO FORERO
15407,VILLA DE LEYVA,CENTRO DE CONVENCIONES CASA DE LOS FUNDADORES,KILOMETRO 1 VIA GUANANI,7320880,admin@casadelosfundadores.com,
15407,VILLA DE LEYVA,HOSPEDERIA LA ROCA,CALLE 13 NO 9 64,7320331 / 3164658602,hlaroca13@tutopia.com / larocahospederia@gmail.com,CARMEN TORRES 
15407,VILLA DE LEYVA,POSADA SAN MARTIN,CALLE 14 NO 9 43,7320428,posadasnmartinleyva@hotmail.com,MARGARITA MARIA EUSSE CALDERON
15407,VILLA DE LEYVA,HOTEL LA POSADA DE SAN ANTONIO,CARRERA 8 NO 11 80,7320538,NI,MARTHA PATRICIA DELGADO GONZALEZ
15407,VILLA DE LEYVA,POSADA VILLA PAZ,CARRERA 11A NO 12 27,7320730,NI,MARLENE VALERO ORTEGA
15407,VILLA DE LEYVA,HOSPEDERIA BAHIA OLIVO,AVENIDA PERIMETRAL NO 10 40,7320935,jairofor@hotmail.com,JAIRO FELIPE FORERO SANCHEZ
15407,VILLA DE LEYVA,HOSPEDERIA VILLA LINA,AVENIDA CIRCUNVALAR CON CALLE 21,321768,hospederiavillalina@hotmail.com,LEONEL GUSTAVO RAMIREZ GARCIA
15407,VILLA DE LEYVA,HOSTERIA LOS FRAYLES DE LA VILLA,CALLE 8 NO 9 38,7320296,NI,JUDITH PINEDA CORTES
15407,VILLA DE LEYVA,FINCA GUANANI,BARRIO SANTANDER,7320398,guanan30@hotmail.com,MARIA DEL SOCORRO FAJARDO GOMEZ
15407,VILLA DE LEYVA,HOSPEDAJE EL CORZO,CARRERA 9 NO 2 206,7320938,NI,ALICIA CORZO DE FARFAN
15407,VILLA DE LEYVA,HOSPEDERIA VILLA DEL CARMEN,CALLE 10A NO 10 79,7321549,NI,LUIS VERLEN AVILA
15407,VILLA DE LEYVA,CASA HOTEL VILLA CRISTINA,CALLE 10 NO 3 78,7320594,chvillacristina@yahoo.es,ANGELA CRISTINA CEPEDA CEPEDA
15407,VILLA DE LEYVA,POSADA DEON BLAS,CALLE 12 NO 10 61,0,NI,TOBIAS CORTES RODRIGUEZ
15407,VILLA DE LEYVA,HOSTAL RENACER,"VEREDA EL CENTRO VIA LA COLORADA KILOMETRO 1,5",3113083739,gilspider@yahoo.com,IVONNE GILEDE MONCAYO
15407,VILLA DE LEYVA,ZONA DE CAMPING SAN JORGE,VEREDA ROBLE,7321585,NI,LUZ MARIELA PARDO NEIRA
15407,VILLA DE LEYVA,P.S.A HOTEL,PARQUE RICAURTE CALLE 15 NO 8 65 INTERIOR 1,2187006,NI,LAURA MENDOZA RODRIGUEZ
15407,VILLA DE LEYVA,EL REFUGIO DE LOS VIRREYES,CALLE 10 NO 6 35,7321104,NI,RICARDO BARRERA CANCINO
15407,VILLA DE LEYVA,RINCON CAMPESTRE,CALLE 12 NO 11A 74,7320453,NI,ANA BETILDA LOZANO DE CAMARGO
15407,VILLA DE LEYVA,HOSPEDERIA DON PAULINO,CALLE 14 NO 7 46,7321227,NI,PAULINO CORDERO GONZALEZ
15407,VILLA DE LEYVA,HOTEL VILLA CAMPESTRE SAN SEBASTIAN,VEREDA MONIQUIRA KILOMETRO 3 VIA LA ESTACION ASTRONOMMICA,6148632,NI,LEONEL RAMIRO AWAZACKO
15407,VILLA DE LEYVA,HOSPEDERIA LA VILLA,CALLE 12 NO 10 11,7320848,NI,MILTON FERNANDO ROJAS VALDERRAMA
15407,VILLA DE LEYVA,POSADA SAN JAVIER,POSADA SAN JAVIER,3157951330,posada_san_javier@hotmai.com,DOUGLAS JAIRO VELASQUEZ RODRIGUEZ
15407,VILLA DE LEYVA,HOSPEDERIA ANTONIO NARIÑO,CARRERA 9 NO 10 34,7320211,NI,JOSE ALBERTO CORTES VILLAMIL
15407,VILLA DE LEYVA,LA ESPAÑOLA,CALLE 12 NO 11 06,73204640,fdosoler@hotmail.com,CESAR AUGUSTO SOLER CARDENAS
15407,VILLA DE LEYVA,HOSPEDERIA BALCONES DE SAN SEBASTIAN,CARRERA 9 NO 9 44 INTERIOR,7320595,NI,ABEL CASALLAS GUERRA
15407,VILLA DE LEYVA,ESTANCIA EL OLIVO,TRASVERSAL 10 NO 7 91,7320142,hedafor@hotmail.com,HELI DARIO FORERO SANCHEZ
15407,VILLA DE LEYVA,P.S.A. CAMPESTRE,KILOMETRO 7 VIA SANTA SOFIA,7321607,mendoza_MORALES@YAHOO.COM,LAURA MENDOZA RODRIGUEZ
15407,VILLA DE LEYVA,POSADA CASA NOVO ARTE,CARRERA 6 NO 13 53,7320112,omarsc_0269@hotmail.es,MARIA DEL PILAR ALVAREZ OCHOA
15407,VILLA DE LEYVA,EL ARCO IRIS VILLA DE LEYVA,VEREDA CENTRO SECTOR LA COLORADA,3107878314,BOHORQUEZJULIA@HOTMAIL.COM,JULIETA BOHORQUEZ DUQUE
15407,VILLA DE LEYVA,HOSPEDAJE GIRALSOL VILLA DE LEYVA,CARRERA 9 NO 10 58 ,3144882380,NI,FLOR MARIA MUNEVAR DE MUNEVAR
15407,VILLA DE LEYVA,HOSPEDAJE SANTA MARIA VILLA DE LEYVA,CARRERA 9 NO 5 135,7320017,NI,MARIA DEL CARMEN CORREDOR DE CORREDOR
15407,VILLA DE LEYVA,SUITES ARCOIRIS.COM,VIA LA COLORADA VEREDA CENTRO KILOMETRO 2,3112547919,info@suitesarcoiris.com,VICENTE DE JESUS CONTRERAS HERNANDEZ
15407,VILLA DE LEYVA,HOSPERIA QUINTA REAL,CALLE 8 NO 10 196,7321468,dianacarrillof@hotmail.com,DIANA CAROLINA CARRILLO FORERO
15407,VILLA DE LEYVA,HOSPEDERIA LA FUENTE,CALLE 13 NO 11A 24,7321310,NI,ORLANDO CARDENAS CASALLAS
15407,VILLA DE LEYVA,HOTEL GOURMET CHEF RICARDO,CARRERA 9 NO 2 75,2302324,chefricardo@telmex.net.co,
15407,VILLA DE LEYVA,CASA HOTEL PIETRA SANTA,VEREDA EL ROBLE,7321371,dianamarmejia@hotmail.com,DIANA MARIA SANABRIA ACERO
15407,VILLA DE LEYVA,POSADA SAN JUANITO,VEREDA EL ROBLE,7321128,dondechipa@hotmail.com,JAIRO OSCAR GUERRERO VILLAMIL
15407,VILLA DE LEYVA,HOSTERIA EL HIDALGO,CARRERA 9 NO 11 26,7321068,hercla2002@gmail.com,JOSUE TOMAS CASTELLANOS GONZALEZ
15407,VILLA DE LEYVA,HOSTAL SINDULY,CARRERA 11 NO 11 77,7320414,noconadelsol@hotmail.com,MANFREND PERKUHN 
15407,VILLA DE LEYVA,MONTECATINI MALOKAS,VEREDA SABANA FINCA MONTECAINI,3102841083,petecarvajal@gmail.com,PEDRO RICARDO CARVAJAL BACCI
15407,VILLA DE LEYVA,ALOJAMIENTO MARIA C.,CALLE 14 NO 7 51,3435972,vivianita.86@hotmail.com,BLANCA BERTILDE CASTAÑEDA MORALES
15407,VILLA DE LEYVA,SAN MIGUEL DE VILLA DE LEYVA,VEREDA EL ROBLE,2154045,pilarsegura@yahoo.com,MARIA PILAR SEGURA OCHOA
15407,VILLA DE LEYVA,FINCA LA PRIMAVERA DE VILLA DE LEYVA,KILOMETRO 4 VEREDA EL ROBLE,7452519,hercla2002@gmail.com,CARMEN SOFIA SERRANO DE YEPES
15407,VILLA DE LEYVA,CABAÑA LA LAGARTIJA,KILOMETRO 6 VIA VILLA DE LEYVA - ARCABUCO VEREDA SABANA ALTA,3142954832,luisftrujillo@etb.net.co,CLAUDIA HELENA TRUJILLO GARCIA
15407,VILLA DE LEYVA,FINCA LOS GIRASOLES VILLA DE LEYVA,VEREDA SABANA ALTA,3142954833,luisftrujillo@etb.net.co,LUIS FERNANDO TRUJILLO PALACIO
15407,VILLA DE LEYVA,SANTA VIVIANA HOTEL,DIAGONAL 8 NO 12A 76,7320818,hotelsantaviviana@gmail.com,PABLO ALEJANDRO SANCHEZ MORA
15407,VILLA DE LEYVA,CABAÑAS JEQUENEQUE - FARALLONES,CARRERA 8 NO 15A 24,3153101154,jarubazul@hotmail.com,JAIME RUIZ BARRERA
15407,VILLA DE LEYVA,HOSPEDERIA CALLE REAL APARTMENTS,TRANSVERSAL 10 NO 7 77 INTERIOR 4,7320551,pesierra@yahoo.com,LUZ AMPARO ROMERO DIAZ
15407,VILLA DE LEYVA,CABAÑAS VILLA DE LA CANDELARIA,CARRERA 9 NO 18 127,4930739,fpatriotas@yahoo.com.co,HUMBERTO MARIA ARBELAEZ RAMOS
15407,VILLA DE LEYVA,FONDA DE BACHUE CIENCIA Y PROGRESO,VEREDA ROBLE ALTO ,3118534175,EUTIMIOREYESM@GMAIL.COM,EUTIMIO ENRIQUE REYES MANOSALVA
15407,VILLA DE LEYVA,HOSTAL PARQUE NARIÑO,CARRERA 8A NO 11 63,3112515194,milokrin@hotmail.com,INGRID LILIANA RINCON LOPEZ
15407,VILLA DE LEYVA,HOTEL ESTANCIA NUEVA GRANADA,CARRERA 7 NO 14 35,7320479,sofrologiarosacecilia@hotmail.com,ROSA CECILIA BERMUDEZ AVELLANEDA
15407,VILLA DE LEYVA,HOTEL CANDELARIA VILLA DE LEYVA,CALLE 18 NO 8 12,7320534,hotelcandelaria@hotmail.com,RAFAEL ALBERTO TOLOZA ORTIZ
15407,VILLA DE LEYVA,PATIO SUIZO,VEREDA ELROBLE URBANIZACION MIRADOR DE LA VILLA,3214573898,marco.dominioni@hotmail.com,FAYSULE ULLOA PACHECO
15407,VILLA DE LEYVA,HOTEL BOUTIQUE EL CANEY,VEREDA SALTO Y VANDERA,2604121,comercializadorala49@hotmail.com,JORGE ALBERTO GUEVARA GARCIA
15407,VILLA DE LEYVA,CASA GLORIA EN VILLA DE LEYVA,CALLE 11 NO 10 38,7320778,hercla2002@gmail.com,MIGUEL OSPINO RODRIGUEZ
15407,VILLA DE LEYVA,HOTEL BERAKA RESORT,CARRERA 9 NO 7 25,7321037 / 3188275889 / 3125891099,hotelberaka@hotmail.com,XIMENA ANDREA VELASCO CASTIBLANCO
15407,VILLA DE LEYVA,FINCA PIEDRA VERDE,VEREDA MONIQUIRA FINCA PIEDRA VERDE,3118971991,marinavelasko@yahoo.es,LUZ MARINA VELASQUEZ SARTA
15407,VILLA DE LEYVA,SAN JUAN DE LUZ 2,MONIQUIRA 500 METROS DEL INFIERNITO,3112909446,fpatriotas@yahoo.com.co,CARMEN MARIA JARAMILLO JIMENEZ
15407,VILLA DE LEYVA,HOSTAL DEL CARMEN,CALLE 13 NO 10 97,7321254,hostal.del.carmen@hotmail.com,MARIA CLARA HUERTAS APONTE
15407,VILLA DE LEYVA,ZONA DE CAMPING EL PORVENIR,VIA CIRCUNVALAR VEREDA ROBLE,7320289,elflaco2525@hotmail.com,CARLOS ARTURO RODRIGUEZ 
15407,VILLA DE LEYVA,CASA DEL PUENTE DEL ARCO,CARRERA 11 NO 14 87,7320387,casadelpuentedelarco@yahoo.com,MARTHA DOLORES HERNANDEZ VELASQUEZ
15407,VILLA DE LEYVA,HOSPEDERIA LAS BRISAS,CALLE 12 NO 10 46,7321643,jenefren3@hotmail.com,JENNY PAOLA GARAY PORRAS
15407,VILLA DE LEYVA,HOSTAL RANA / LEARN SPANISH IN VILLA DE LEYVA,CALLE 10A NO 10 31,3114642969,info@hostalrana.com,LUIS ALEJANDRO BENITEZ MILLAN
15407,VILLA DE LEYVA,EL PARAISO DE CHEPE,VEREDA LA COLORADA FINCA EL PARAISO DE CHEPE,3123045894,julimoni@hotmail.com,JOSE NICASIO NAVARRETE ZAMBRANO
15407,VILLA DE LEYVA,HOTEL VILLA ROMA,CALLE 8 NO 10 166,3114182576,info@hotelvillaroma.com,CARMEN GILMA AMADOR CORTES
15407,VILLA DE LEYVA,ANAKA,AVENIDA CIRCUNVALAR,3214513680,villaanaka@hotmail.com,DIANA SOLEIDA GONZALEZ SALAZAR
15407,VILLA DE LEYVA,RESIDENCIAS ARTISTICAS EL HAYUELO,VEREDA MONQUIRA,3125861803,admin@residenciasartisticas.com,MARIA CONSUELO QUINTERO SUAREZ
15407,VILLA DE LEYVA,HOSTAL LAS MARGARITAS,CARRERA 10 NO 11 19,7321395,yelenesyco@hotmail.com,SANDRA YELENE CARMONA OVALLE
15407,VILLA DE LEYVA,SOL MANDARINA VILLA DE LEYVA,VEREDA EL ROBLE SECTOR ALTO,2360128,helenapadilla27@gmail.com,OLGA HELENA PADILLA PEÑA
15407,VILLA DE LEYVA,HOSTAL LOS HELECHOS,CALLE 10 NO 9 25,3144143985,hercla2002@gmail.com,JOSUE RODRIGUEZ CASTILLO
15407,VILLA DE LEYVA,HOSPEDAJE D & D,CALLE 5 NO 10 249,7321978,jully_cjel@hotmail.com,CLARA JULIANA ESTUPIÑAN LESMES
15407,VILLA DE LEYVA,ALOJAMIENTO JOSE ANTONIO BUITRAGO,CALLE 14 NO 7 35,3135073412,hercla2002@gmail.com,JOSE ANTONIO BUITRAGO VILLAMIL
15407,VILLA DE LEYVA,CABAÑA VILLA DEL LAGO,SECTOR GOMAR VEREDA SABANA,3112017627,carlosradioytv@gmail.com,CARLOS ARTURO MARTINEZ AGUILERA
15407,VILLA DE LEYVA,HOSPEDERIA CAMPESTRE LAS LUNAS,KILOMETRO 5 VIA ARCABUCO VEREDA SABANA,3102306302,villadeleyvainn@yahoo.com,SANDRA PATRICIA VARGAS CRUZ
15407,VILLA DE LEYVA,CABAÑA ENTRE PINOS,VEREDA EL ROBLE,7320985,,JOACHIM WILHELM KNOOP
15407,VILLA DE LEYVA,HOSPEDAJE HACIENDA VERACRUZ - UNIDAD DE SERVICIOS ODONTOLOGICOS CAMILO BORRAS,CALLE 14 NO 7 30,7321300,camiloborras@hotmail.com,CAMILO EDUARDO BORRAS BAEZ
15407,VILLA DE LEYVA,CASONA LA TOSCANA - VILLA DE LEYVA,VEREDA SABA ALTA,3115121102,rugercarmenza@yahoo.es,CARMENZA RUGER ARISTIZABAL
15407,VILLA DE LEYVA,POSADA LUIS VARGAS TEJADA,CALLE 14 NO 8 16,3178424048,carista75@gmail.com,ROSALBA HERRERA BAQUERO
15407,VILLA DE LEYVA,CASA SAN NICOLAS,URBANIZACION ALTOS DEL ROBLE- VIA ARCABUCO,3157801767,casonasannicolas@yahoo.com,CECILIA DEL CONSUELO SANCHEZ LUCAS
15407,VILLA DE LEYVA,CASA VIENA,CARRERA 10 NO 19 114,7320711,hanskolland@yahoo.com,HANS KOLLAND 
15407,VILLA DE LEYVA,CASA FLORAL VILLA DE LEYVA,AVENIDA CIRCUNVALAR VEREDA EL ROBLE,3112305437,bivianaborras@yahoo.com,FLOR ALBA RIAÑO DE BORRAS
15407,VILLA DE LEYVA,SANTA MARIA DE LEYVA HOTEL BOUTIQUE,CARRERA 9 NO 5 86,7321155,7321155,ULISES DE JESUS MARIÑO MORALES
15407,VILLA DE LEYVA,LA CASA DE PIEDRITA,CARRERA 7 NO 14 91,3153164760,nohoradeborras@yahoo.com,HILDA NOHORA VALENZUELA DE BORRAS
15407,VILLA DE LEYVA,HOSPEDAJE LA MARIA,CALLE 5 NO 10 201,7320556,NI,JOSE ANTONIO BORRAS BORRAS
15407,VILLA DE LEYVA,RINCON DE LA ALBORADA,TRANSVERSAL 9 NO 18 174 INTERIOR,7320432,esparzaarquitectos@gmail.com,ROSA HELENA ALVARADO DE ESPARZA
15407,VILLA DE LEYVA,CASA VILLA GLADYS,CALLE 11 NO 6 02,8112212,yeseniasotelo10@hotmail.com,JOSE GUNDISALVO SOTELO ROJAS
15407,VILLA DE LEYVA,LA CASITA DEL PINTOR,VEREDA LA COLORADA,3102341367,3102341367,CLARA LUCIA VARGAS GOODMAN
15407,VILLA DE LEYVA,CASA QUINTA LA PEPITA,CARRERA 7 NO 10 86,3133884491,ciecas@hotmail.com,CIELO YOLIMA CASTRO NEIRA
15407,VILLA DE LEYVA,HOSPEDAJE RURAL CASA FURACHAGUA,VEREDA EL ROBLE PREDIO FURACHAGUA,2570543,furachagua@gmail.com,YACQUELINE BORRERO MARTELO
15407,VILLA DE LEYVA,EL MOLINO DE ALDEBARAN,VEREDA SALTO Y LAVANDERA,3143939354,juanvargas001@gmail.com,JUAN CARLOS VARGAS CAMACHO
15407,VILLA DE LEYVA,CASA CAMPESTRE KFIR,VEREDA RITOQUE EL MUELLE,3202740279,jose.eduardo.enciso@hotmail.com,JOSE EDUARDO ENCISO BARRAGAN
15407,VILLA DE LEYVA,CASA SUEZ,TRANSVERSAL 9 NO 18 174 ULTIMA CASA,3103048289,suarezecamilo@gmail.com,CAMILO ANDRES SUAREZ ESPINOSA
15407,VILLA DE LEYVA,CASA ASANA,VEREDA EL ROBLE,4007552,zward@gmail.com,ZULMA LORENA GOMEZ LARA
15407,VILLA DE LEYVA,SHANGRI - LA,CALLE 10 NO 3 68,3153658254,lauremac@hotmail.com,LAURA EMMA ACOSTA CASTELLANOS
15407,VILLA DE LEYVA,HOSTAL VILLA REAL L,TRANSVERSAL 10 NO 9 51,7320223,lili-polaca@hotmail.com,MARISOL URREGO CASTAÑEDA
15407,VILLA DE LEYVA,CASA CAMPESTRE NIRVANA,VEREDA EL ROBLE,7320903,patyvenegas1@hotmail.com,DIANA MARCELA PINZON VENEGAS
15407,VILLA DE LEYVA,EL SOLAR HOSTEL,CARRERA 6 NO 14 06,4755073,info@elsolarhostel.com,NICOLAS LEON CHONA
15407,VILLA DE LEYVA,CASA GRANDE VILLA DE LEYVA,CALLE 17 NO 11 84,7321156,casagrandevilladeleyva@gmail.com,CLARA LUCIA CHAPARRO DE GUTIERREZ
15407,VILLA DE LEYVA,HOSPEDERIA VILLACONCHA,VEREDA EL ROBLE SECTOR ALTO,3105656233,soniabdiaz@hotmail.com,SONIA BEATRIZ DIAZ PARDO
15407,VILLA DE LEYVA,HOSPEDERIA CASA SAN VICENTE FERRER,CARRERA 8 NO 9 95,3125556486,ixelilla@hotmail.com,DOMINGO RODRIGUEZ 
15407,VILLA DE LEYVA,CASAS CAMPESTRES ARCOIRIS,VIA LA COLORADA VEREDA CENTRO,3112547919,reservasturisticas@hotmail.com,NELSON OSWALDO LINEROS BARRERA
15407,VILLA DE LEYVA,HOSTAL CASONA SANTO DOMINGO,CARRERA 10 NO 16 101,3142642920,hospederiacasonadesantodomingo@yahoo.com,LINA MARIA GONZALEZ CASTELLANOS
15407,VILLA DE LEYVA,CASA DE CAMPO HOTEL,VEREDA ROBLE NUEVO FINCA EL OREGANO,3143754542,ajtvilla@terra.com,LUIS ALBERTO DELGADO 
15407,VILLA DE LEYVA,POSADA RURAL EL ROBLE,VEREDA EL ROBLE,3115180974,loprada3@gmail.com,LUISA OCAMPO PRADO
